[
    {
        "OBJECT_NAME": "QZS-2 (MICHIBIKI-2)",
        "OBJECT_ID": "2017-028A",
        "EPOCH": "2025-04-26T05:06:38.693376",
        "MEAN_MOTION": 1.00248853,
        "ECCENTRICITY": 0.0739823,
        "INCLINATION": 40.0762,
        "RA_OF_ASC_NODE": 249.2347,
        "ARG_OF_PERICENTER": 270.7476,
        "MEAN_ANOMALY": 269.1429,
        "EPHEMERIS_TYPE": 0,
        "CLASSIFICATION_TYPE": "U",
        "NORAD_CAT_ID": 42738,
        "ELEMENT_SET_NO": 999,
        "REV_AT_EPOCH": 344,
        "BSTAR": 0,
        "MEAN_MOTION_DOT": -2.17e-06,
        "MEAN_MOTION_DDOT": 0
    },
    {
        "OBJECT_NAME": "QZS-3 (MICHIBIKI-3)",
        "OBJECT_ID": "2017-048A",
        "EPOCH": "2025-05-03T21:49:34.214592",
        "MEAN_MOTION": 1.00275725,
        "ECCENTRICITY": 0.0003179,
        "INCLINATION": 0.0599,
        "RA_OF_ASC_NODE": 214.3788,
        "ARG_OF_PERICENTER": 196.1416,
        "MEAN_ANOMALY": 265.9029,
        "EPHEMERIS_TYPE": 0,
        "CLASSIFICATION_TYPE": "U",
        "NORAD_CAT_ID": 42917,
        "ELEMENT_SET_NO": 999,
        "REV_AT_EPOCH": 2815,
        "BSTAR": 0,
        "MEAN_MOTION_DOT": -3.59e-06,
        "MEAN_MOTION_DDOT": 0
    },
    {
        "OBJECT_NAME": "QZS-4 (MICHIBIKI-4)",
        "OBJECT_ID": "2017-062A",
        "EPOCH": "2025-05-03T11:33:57.417120",
        "MEAN_MOTION": 1.00264477,
        "ECCENTRICITY": 0.0746797,
        "INCLINATION": 40.3503,
        "RA_OF_ASC_NODE": 348.7105,
        "ARG_OF_PERICENTER": 270.832,
        "MEAN_ANOMALY": 274.8842,
        "EPHEMERIS_TYPE": 0,
        "CLASSIFICATION_TYPE": "U",
        "NORAD_CAT_ID": 42965,
        "ELEMENT_SET_NO": 999,
        "REV_AT_EPOCH": 2769,
        "BSTAR": 0,
        "MEAN_MOTION_DOT": -3.5e-06,
        "MEAN_MOTION_DDOT": 0
    },
    {
        "OBJECT_NAME": "QZS-1R (MICHIBIKI-1R)",
        "OBJECT_ID": "2021-096A",
        "EPOCH": "2025-05-03T18:24:14.823072",
        "MEAN_MOTION": 1.00269493,
        "ECCENTRICITY": 0.0753747,
        "INCLINATION": 36.6145,
        "RA_OF_ASC_NODE": 85.6801,
        "ARG_OF_PERICENTER": 270.8265,
        "MEAN_ANOMALY": 278.0535,
        "EPHEMERIS_TYPE": 0,
        "CLASSIFICATION_TYPE": "U",
        "NORAD_CAT_ID": 49336,
        "ELEMENT_SET_NO": 999,
        "REV_AT_EPOCH": 1290,
        "BSTAR": 0,
        "MEAN_MOTION_DOT": -2.37e-06,
        "MEAN_MOTION_DDOT": 0
    },
    {
        "OBJECT_NAME": "QZS-6 (MICHIBIKI-6)",
        "OBJECT_ID": "2025-023A",
        "EPOCH": "2025-05-03T23:09:39.602016",
        "MEAN_MOTION": 1.00272757,
        "ECCENTRICITY": 0.0001705,
        "INCLINATION": 0.0464,
        "RA_OF_ASC_NODE": 350.9036,
        "ARG_OF_PERICENTER": 42.1231,
        "MEAN_ANOMALY": 267.0086,
        "EPHEMERIS_TYPE": 0,
        "CLASSIFICATION_TYPE": "U",
        "NORAD_CAT_ID": 62876,
        "ELEMENT_SET_NO": 999,
        "REV_AT_EPOCH": 85,
        "BSTAR": 0,
        "MEAN_MOTION_DOT": -2.45e-06,
        "MEAN_MOTION_DDOT": 0
    }
]