QZS-2 (MICHIBIKI-2)     
1 42738U 17028A   25116.21294784 -.00000217  00000+0  00000+0 0  9993
2 42738  40.0762 249.2347 0739823 270.7476 269.1429  1.00248853  3446
QZS-3 (MICHIBIKI-3)     
1 42917U 17048A   25123.90942378 -.00000359  00000+0  00000+0 0  9994
2 42917   0.0599 214.3788 0003179 196.1416 265.9029  1.00275725 28157
QZS-4 (MICHIBIKI-4)     
1 42965U 17062A   25123.48191455 -.00000350  00000+0  00000+0 0  9999
2 42965  40.3503 348.7105 0746797 270.8320 274.8842  1.00264477 27693
QZS-1R (MICHIBIKI-1R)   
1 49336U 21096A   25123.76683823 -.00000237  00000+0  00000+0 0  9990
2 49336  36.6145  85.6801 0753747 270.8265 278.0535  1.00269493 12909
QZS-6 (MICHIBIKI-6)     
1 62876U 25023A   25123.96504169 -.00000245  00000+0  00000+0 0  9994
2 62876   0.0464 350.9036 0001705  42.1231 267.0086  1.00272757   850
